STARLINK-31226          
1 58858U 24019F   26068.90424495  .00001265  00000+0  55509-4 0  9990
2 58858  43.0009 247.8462 0001671 270.2377  89.8283 15.27576188119119
STARLINK-31630          
1 59271U 24050T   26068.56880718 -.00002063  00000+0 -57526-4 0  9991
2 59271  53.1600 168.5079 0001409  92.3163 267.7999 15.30200807110710
